{"type": "FeatureCollection", "features": [ {"type": "Feature", "properties": {"norad_id": 30306, "name": "FENGYUN 1C DEB", "group": "fengyun-1c-debris", "lat": 64.75012330966511, "lon": -119.49471402439103, "alt_km": 866.3264767208466, "timestamp": "2025-12-26T23:26:42.404078+00:00", "meta": {"OBJECT_NAME": "FENGYUN 1C DEB", "OBJECT_ID": "1999-025ZT", "EPOCH": "2025-12-25T20:00:41.400000", "MEAN_MOTION": 14.28266969, "ECCENTRICITY": 0.0112871, "INCLINATION": 98.5854, "RA_OF_ASC_NODE": 40.6987, "ARG_OF_PERICENTER": 318.7976, "MEAN_ANOMALY": 40.4726, "EPHEMERIS_TYPE": 0, "CLASSIFICATION_TYPE": "U", "NORAD_CAT_ID": 30306, "ELEMENT_SET_NO": 999, "REV_AT_EPOCH": 97868, "BSTAR": 0.00095479, "MEAN_MOTION_DOT": 2.505e-05, "MEAN_MOTION_DDOT": 0}, "tle": {"line1": "1 30306U 99025ZT  25359.83381250  .00002505  00000+0  95479-3 0  9999", "line2": "2 30306  98.5854  40.6987 0112871 318.7976  40.4726 14.28266969978682"}}, "geometry": {"type": "Point", "coordinates": [-119.49471402439103, 64.75012330966511]}}, {"type": "Feature", "properties": {"norad_id": 30309, "name": "FENGYUN 1C DEB", "group": "fengyun-1c-debris", "lat": 39.36857621653462, "lon": 50.44281677588279, "alt_km": 939.72752035549, "timestamp": "2025-12-26T23:26:42.404087+00:00", "meta": {"OBJECT_NAME": "FENGYUN 1C DEB", "OBJECT_ID": "1999-025ZW", "EPOCH": "2025-12-26T14:38:07.775808", "MEAN_MOTION": 13.935311, "ECCENTRICITY": 0.00938053, "INCLINATION": 99.2242, "RA_OF_ASC_NODE": 57.7388, "ARG_OF_PERICENTER": 154.3805, "MEAN_ANOMALY": 206.2047, "EPHEMERIS_TYPE": 0, "CLASSIFICATION_TYPE": "U", "NORAD_CAT_ID": 30309, "ELEMENT_SET_NO": 999, "REV_AT_EPOCH": 96226, "BSTAR": 0.00031571734, "MEAN_MOTION_DOT": 3.85e-06, "MEAN_MOTION_DDOT": 0}, "tle": {"line1": "1 30309U 99025ZW  25360.60981222  .00000385  00000+0  31572-3 0  9992", "line2": "2 30309  99.2242  57.7388 0093805 154.3805 206.2047 13.93531100962266"}}, "geometry": {"type": "Point", "coordinates": [50.44281677588279, 39.36857621653462]}}, {"type": "Feature", "properties": {"norad_id": 30310, "name": "FENGYUN 1C DEB", "group": "fengyun-1c-debris", "lat": 3.756851111385768, "lon": 19.493749392026782, "alt_km": 745.7624143880084, "timestamp": "2025-12-26T23:26:42.404096+00:00", "meta": {"OBJECT_NAME": "FENGYUN 1C DEB", "OBJECT_ID": "1999-025ZX", "EPOCH": "2025-12-23T18:42:17.307936", "MEAN_MOTION": 14.0841603, "ECCENTRICITY": 0.02404585, "INCLINATION": 98.6639, "RA_OF_ASC_NODE": 16.993, "ARG_OF_PERICENTER": 326.1615, "MEAN_ANOMALY": 32.4407, "EPHEMERIS_TYPE": 0, "CLASSIFICATION_TYPE": "U", "NORAD_CAT_ID": 30310, "ELEMENT_SET_NO": 999, "REV_AT_EPOCH": 96887, "BSTAR": 0.00058910425, "MEAN_MOTION_DOT": 1.271e-05, "MEAN_MOTION_DDOT": 0}, "tle": {"line1": "1 30310U 99025ZX  25357.77936699  .00001271  00000+0  58910-3 0  9996", "line2": "2 30310  98.6639  16.9930 0240458 326.1615  32.4407 14.08416030968870"}}, "geometry": {"type": "Point", "coordinates": [19.493749392026782, 3.756851111385768]}}, {"type": "Feature", "properties": {"norad_id": 30311, "name": "FENGYUN 1C DEB", "group": "fengyun-1c-debris", "lat": 75.42097773979994, "lon": 57.90371307879119, "alt_km": 942.605710385892, "timestamp": "2025-12-26T23:26:42.404105+00:00", "meta": {"OBJECT_NAME": "FENGYUN 1C DEB", "OBJECT_ID": "1999-025ZY", "EPOCH": "2025-12-26T05:37:54.923808", "MEAN_MOTION": 13.77901049, "ECCENTRICITY": 0.01656829, "INCLINATION": 99.1387, "RA_OF_ASC_NODE": 95.4239, "ARG_OF_PERICENTER": 161.3361, "MEAN_ANOMALY": 199.3965, "EPHEMERIS_TYPE": 0, "CLASSIFICATION_TYPE": "U", "NORAD_CAT_ID": 30311, "ELEMENT_SET_NO": 999, "REV_AT_EPOCH": 95146, "BSTAR": 0.00040118235, "MEAN_MOTION_DOT": 4.03e-06, "MEAN_MOTION_DDOT": 0}, "tle": {"line1": "1 30311U 99025ZY  25360.23466347  .00000403  00000+0  40118-3 0  9997", "line2": "2 30311  99.1387  95.4239 0165682 161.3361 199.3965 13.77901049951466"}}, "geometry": {"type": "Point", "coordinates": [57.90371307879119, 75.42097773979994]}}, {"type": "Feature", "properties": {"norad_id": 30312, "name": "FENGYUN 1C DEB", "group": "fengyun-1c-debris", "lat": 57.34141015830595, "lon": 66.79654691350571, "alt_km": 736.5285337137402, "timestamp": "2025-12-26T23:26:42.404115+00:00", "meta": {"OBJECT_NAME": "FENGYUN 1C DEB", "OBJECT_ID": "1999-025ZZ", "EPOCH": "2025-12-26T05:09:43.799328", "MEAN_MOTION": 14.46048664, "ECCENTRICITY": 0.00119678, "INCLINATION": 98.8665, "RA_OF_ASC_NODE": 80.0958, "ARG_OF_PERICENTER": 175.3281, "MEAN_ANOMALY": 239.8499, "EPHEMERIS_TYPE": 0, "CLASSIFICATION_TYPE": "U", "NORAD_CAT_ID": 30312, "ELEMENT_SET_NO": 999, "REV_AT_EPOCH": 98115, "BSTAR": 0.0024594101, "MEAN_MOTION_DOT": 8.74e-05, "MEAN_MOTION_DDOT": 0}, "tle": {"line1": "1 30312U 99025ZZ  25360.21509027  .00008740  00000+0  24594-2 0  9990", "line2": "2 30312  98.8665  80.0958 0011967 175.3281 239.8499 14.46048664981155"}}, "geometry": {"type": "Point", "coordinates": [66.79654691350571, 57.34141015830595]}}, {"type": "Feature", "properties": {"norad_id": 30313, "name": "FENGYUN 1C DEB", "group": "fengyun-1c-debris", "lat": 3.355713237952254, "lon": -92.15851506141128, "alt_km": 827.690396709897, "timestamp": "2025-12-26T23:26:42.404124+00:00", "meta": {"OBJECT_NAME": "FENGYUN 1C DEB", "OBJECT_ID": "1999-025AAA", "EPOCH": "2025-12-26T12:34:39.127872", "MEAN_MOTION": 14.25559137, "ECCENTRICITY": 0.00570994, "INCLINATION": 98.874, "RA_OF_ASC_NODE": 86.8585, "ARG_OF_PERICENTER": 295.0773, "MEAN_ANOMALY": 79.4429, "EPHEMERIS_TYPE": 0, "CLASSIFICATION_TYPE": "U", "NORAD_CAT_ID": 30313, "ELEMENT_SET_NO": 999, "REV_AT_EPOCH": 97286, "BSTAR": 0.0017511188, "MEAN_MOTION_DOT": 4.17e-05, "MEAN_MOTION_DDOT": 0}, "tle": {"line1": "1 30313U 99025AAA 25360.52406398  .00004170  00000+0  17511-2 0  9996", "line2": "2 30313  98.8740  86.8585 0057099 295.0773  79.4429 14.25559137972860"}}, "geometry": {"type": "Point", "coordinates": [-92.15851506141128, 3.355713237952254]}}, {"type": "Feature", "properties": {"norad_id": 30314, "name": "FENGYUN 1C DEB", "group": "fengyun-1c-debris", "lat": 37.12778695368051, "lon": -175.71629152332406, "alt_km": 867.4242507595454, "timestamp": "2025-12-26T23:26:42.404133+00:00", "meta": {"OBJECT_NAME": "FENGYUN 1C DEB", "OBJECT_ID": "1999-025AAB", "EPOCH": "2025-12-26T07:50:43.276992", "MEAN_MOTION": 14.01238587, "ECCENTRICITY": 0.01425023, "INCLINATION": 98.3817, "RA_OF_ASC_NODE": 190.095, "ARG_OF_PERICENTER": 319.4852, "MEAN_ANOMALY": 39.5775, "EPHEMERIS_TYPE": 0, "CLASSIFICATION_TYPE": "U", "NORAD_CAT_ID": 30314, "ELEMENT_SET_NO": 999, "REV_AT_EPOCH": 96299, "BSTAR": 0.0011533154, "MEAN_MOTION_DOT": 1.855e-05, "MEAN_MOTION_DDOT": 0}, "tle": {"line1": "1 30314U 99025AAB 25360.32688978  .00001855  00000+0  11533-2 0  9996", "line2": "2 30314  98.3817 190.0950 0142502 319.4852  39.5775 14.01238587962999"}}, "geometry": {"type": "Point", "coordinates": [-175.71629152332406, 37.12778695368051]}}, {"type": "Feature", "properties": {"norad_id": 30315, "name": "FENGYUN 1C DEB", "group": "fengyun-1c-debris", "lat": 35.19149248889942, "lon": 3.9401809930403235, "alt_km": 820.2968614575902, "timestamp": "2025-12-26T23:26:42.404142+00:00", "meta": {"OBJECT_NAME": "FENGYUN 1C DEB", "OBJECT_ID": "1999-025AAC", "EPOCH": "2025-12-26T13:40:49.790208", "MEAN_MOTION": 14.19084011, "ECCENTRICITY": 0.0034569, "INCLINATION": 98.6017, "RA_OF_ASC_NODE": 9.6728, "ARG_OF_PERICENTER": 320.0549, "MEAN_ANOMALY": 157.9547, "EPHEMERIS_TYPE": 0, "CLASSIFICATION_TYPE": "U", "NORAD_CAT_ID": 30315, "ELEMENT_SET_NO": 999, "REV_AT_EPOCH": 97903, "BSTAR": 0.00034455878, "MEAN_MOTION_DOT": 6.82e-06, "MEAN_MOTION_DDOT": 0}, "tle": {"line1": "1 30315U 99025AAC 25360.57002072  .00000682  00000+0  34456-3 0  9996", "line2": "2 30315  98.6017   9.6728 0034569 320.0549 157.9547 14.19084011979032"}}, "geometry": {"type": "Point", "coordinates": [3.9401809930403235, 35.19149248889942]}}, {"type": "Feature", "properties": {"norad_id": 30316, "name": "FENGYUN 1C DEB", "group": "fengyun-1c-debris", "lat": -8.040268842634099, "lon": -77.3226802014143, "alt_km": 733.3069511989679, "timestamp": "2025-12-26T23:26:42.404151+00:00", "meta": {"OBJECT_NAME": "FENGYUN 1C DEB", "OBJECT_ID": "1999-025AAD", "EPOCH": "2025-12-26T06:05:39.542496", "MEAN_MOTION": 14.56300626, "ECCENTRICITY": 0.00351072, "INCLINATION": 98.6474, "RA_OF_ASC_NODE": 103.1599, "ARG_OF_PERICENTER": 357.5019, "MEAN_ANOMALY": 2.5997, "EPHEMERIS_TYPE": 0, "CLASSIFICATION_TYPE": "U", "NORAD_CAT_ID": 30316, "ELEMENT_SET_NO": 999, "REV_AT_EPOCH": 98533, "BSTAR": 0.0020921285, "MEAN_MOTION_DOT": 9.303e-05, "MEAN_MOTION_DDOT": 0}, "tle": {"line1": "1 30316U 99025AAD 25360.25392989  .00009303  00000+0  20921-2 0  9991", "line2": "2 30316  98.6474 103.1599 0035107 357.5019   2.5997 14.56300626985330"}}, "geometry": {"type": "Point", "coordinates": [-77.3226802014143, -8.040268842634099]}}, {"type": "Feature", "properties": {"norad_id": 30317, "name": "FENGYUN 1C DEB", "group": "fengyun-1c-debris", "lat": 52.32777378512867, "lon": -167.3993526963706, "alt_km": 870.4105950607272, "timestamp": "2025-12-26T23:26:42.404160+00:00", "meta": {"OBJECT_NAME": "FENGYUN 1C DEB", "OBJECT_ID": "1999-025AAE", "EPOCH": "2025-12-26T10:53:42.832608", "MEAN_MOTION": 14.06954332, "ECCENTRICITY": 0.00242638, "INCLINATION": 98.7867, "RA_OF_ASC_NODE": 0.5371, "ARG_OF_PERICENTER": 236.6303, "MEAN_ANOMALY": 123.2543, "EPHEMERIS_TYPE": 0, "CLASSIFICATION_TYPE": "U", "NORAD_CAT_ID": 30317, "ELEMENT_SET_NO": 999, "REV_AT_EPOCH": 97206, "BSTAR": 0.00014458549, "MEAN_MOTION_DOT": 1.99e-06, "MEAN_MOTION_DDOT": 0}, "tle": {"line1": "1 30317U 99025AAE 25360.45396797  .00000199  00000+0  14459-3 0  9999", "line2": "2 30317  98.7867   0.5371 0024263 236.6303 123.2543 14.06954332972068"}}, "geometry": {"type": "Point", "coordinates": [-167.3993526963706, 52.32777378512867]}}]}